{
  "links" : {
    "next" : "https://api.nasa.gov/neo/rest/v1/feed?start_date=2008-12-09&end_date=2008-12-09&detailed=true&api_key=t0TVs3DtDT2H8Oy2Zy8m2eVrNsAVKAexjcZXUckd",
    "prev" : "https://api.nasa.gov/neo/rest/v1/feed?start_date=2008-12-07&end_date=2008-12-07&detailed=true&api_key=t0TVs3DtDT2H8Oy2Zy8m2eVrNsAVKAexjcZXUckd",
    "self" : "https://api.nasa.gov/neo/rest/v1/feed?start_date=2008-12-08&end_date=2008-12-08&detailed=true&api_key=t0TVs3DtDT2H8Oy2Zy8m2eVrNsAVKAexjcZXUckd"
  },
  "element_count" : 5,
  "near_earth_objects" : {
    "2008-12-08" : [ {
      "links" : {
        "self" : "https://api.nasa.gov/neo/rest/v1/neo/3669052?api_key=t0TVs3DtDT2H8Oy2Zy8m2eVrNsAVKAexjcZXUckd"
      },
      "neo_reference_id" : "3669052",
      "name" : "(2014 HM4)",
      "nasa_jpl_url" : "http://ssd.jpl.nasa.gov/sbdb.cgi?sstr=3669052",
      "absolute_magnitude_h" : 26.9,
      "estimated_diameter" : {
        "kilometers" : {
          "estimated_diameter_min" : 0.0110803882,
          "estimated_diameter_max" : 0.0247765013
        },
        "meters" : {
          "estimated_diameter_min" : 11.0803882126,
          "estimated_diameter_max" : 24.7765012606
        },
        "miles" : {
          "estimated_diameter_min" : 0.0068850319,
          "estimated_diameter_max" : 0.0153953994
        },
        "feet" : {
          "estimated_diameter_min" : 36.3529808636,
          "estimated_diameter_max" : 81.2877363957
        }
      },
      "is_potentially_hazardous_asteroid" : false,
      "close_approach_data" : [ {
        "close_approach_date" : "2008-12-08",
        "epoch_date_close_approach" : 1228723200000,
        "relative_velocity" : {
          "kilometers_per_second" : "10.6730017399",
          "kilometers_per_hour" : "38422.8062637178",
          "miles_per_hour" : "23874.4375920306"
        },
        "miss_distance" : {
          "astronomical" : "0.2274207418",
          "lunar" : "88.4666671753",
          "kilometers" : "34021660",
          "miles" : "21140080"
        },
        "orbiting_body" : "Earth"
      } ],
      "orbital_data" : {
        "orbit_id" : "12",
        "orbit_determination_date" : "2017-04-06 08:41:29",
        "orbit_uncertainty" : "5",
        "minimum_orbit_intersection" : ".00167933",
        "jupiter_tisserand_invariant" : "5.515",
        "epoch_osculation" : "2458000.5",
        "eccentricity" : ".5298916643511645",
        "semi_major_axis" : "1.098756454473467",
        "inclination" : "1.314815473331652",
        "ascending_node_longitude" : "30.83325542490622",
        "orbital_period" : "420.6787606603158",
        "perihelion_distance" : ".5165345680959371",
        "perihelion_argument" : "297.9596491984008",
        "aphelion_distance" : "1.680978340850997",
        "perihelion_time" : "2458095.152907814652",
        "mean_anomaly" : "278.9998402586597",
        "mean_motion" : ".8557598663524829",
        "equinox" : "J2000"
      }
    }, {
      "links" : {
        "self" : "https://api.nasa.gov/neo/rest/v1/neo/3696305?api_key=t0TVs3DtDT2H8Oy2Zy8m2eVrNsAVKAexjcZXUckd"
      },
      "neo_reference_id" : "3696305",
      "name" : "(2014 WC5)",
      "nasa_jpl_url" : "http://ssd.jpl.nasa.gov/sbdb.cgi?sstr=3696305",
      "absolute_magnitude_h" : 24.7,
      "estimated_diameter" : {
        "kilometers" : {
          "estimated_diameter_min" : 0.0305179233,
          "estimated_diameter_max" : 0.0682401509
        },
        "meters" : {
          "estimated_diameter_min" : 30.5179232594,
          "estimated_diameter_max" : 68.2401509401
        },
        "miles" : {
          "estimated_diameter_min" : 0.0189629525,
          "estimated_diameter_max" : 0.0424024508
        },
        "feet" : {
          "estimated_diameter_min" : 100.1244233463,
          "estimated_diameter_max" : 223.8850168104
        }
      },
      "is_potentially_hazardous_asteroid" : false,
      "close_approach_data" : [ {
        "close_approach_date" : "2008-12-08",
        "epoch_date_close_approach" : 1228723200000,
        "relative_velocity" : {
          "kilometers_per_second" : "13.353029391",
          "kilometers_per_hour" : "48070.905807532",
          "miles_per_hour" : "29869.3914446856"
        },
        "miss_distance" : {
          "astronomical" : "0.2697781988",
          "lunar" : "104.9437179565",
          "kilometers" : "40358244",
          "miles" : "25077450"
        },
        "orbiting_body" : "Earth"
      } ],
      "orbital_data" : {
        "orbit_id" : "7",
        "orbit_determination_date" : "2017-04-06 08:37:29",
        "orbit_uncertainty" : "6",
        "minimum_orbit_intersection" : ".0391788",
        "jupiter_tisserand_invariant" : "6.544",
        "epoch_osculation" : "2458000.5",
        "eccentricity" : ".1810352252895704",
        "semi_major_axis" : ".9084774068306181",
        "inclination" : "6.71596102674566",
        "ascending_node_longitude" : "59.50847217070891",
        "orbital_period" : "316.278465944123",
        "perihelion_distance" : ".7440109948145525",
        "perihelion_argument" : "150.6180808309372",
        "aphelion_distance" : "1.072943818846684",
        "perihelion_time" : "2458056.750081944710",
        "mean_anomaly" : "295.9740491985524",
        "mean_motion" : "1.138237467180587",
        "equinox" : "J2000"
      }
    } ]
  }
}